EKRAN 11                
1 14377U 83100A   26061.14320646 -.00000291  00000+0  00000+0 0  9996
2 14377   7.9956 305.2609 0004708 348.0041  11.9605  1.00314507 46300
INTELSAT 507            
1 14421U 83105A   26061.48998566 -.00000091  00000+0  00000+0 0  9998
2 14421  12.0973 331.8521 0003205  47.2165 221.4930  0.99689767136163
RADUGA 14               
1 14725U 84016A   26061.84072336 -.00000077  00000+0  00000+0 0  9999
2 14725   8.7757 311.4893 0000532 125.8562  96.6614  1.00297103117030
COSMOS 1540             
1 14783U 84022A   26061.67365976 -.00000084  00000+0  00000+0 0  9994
2 14783   9.5440 305.3855 0007679 300.3177 229.1005  1.00282251119951
COSMOS 1546             
1 14867U 84031A   26061.78716102 -.00000124  00000+0  00000+0 0  9995
2 14867   8.8810 312.1374 0025168  13.2119 195.0948  1.00257652 46300
STTW-T2                 
1 14899U 84035A   26061.56544550 -.00000336  00000+0  00000+0 0  9991
2 14899   9.6384 318.5652 0005664 196.6385 343.7122  1.00269682 46301
GORIZONT 9              
1 14940U 84041A   26061.78601558 -.00000201  00000+0  00000+0 0  9992
2 14940   8.9491 313.0091 0005792 295.3609 278.2985  1.00318460120877
ZHONGXING-5             
1 14985U 84049A   26060.22198520 -.00000307  00000+0  00000+0 0  9994
2 14985  14.3956 349.1328 0010447 253.4592 300.2580  0.99989893130223
RADUGA 15               
1 15057U 84063A   26061.63061175 -.00000342  00000+0  00000+0 0  9991
2 15057   8.9347 312.4752 0001897 248.2679 291.4449  1.00187240140032
GORIZONT 10             
1 15144U 84078A   26061.47295353  .00000097  00000+0  00000+0 0  9999
2 15144   9.0845 314.0546 0003808 340.1278 251.3504  1.00193478153507
HIMAWARI-3 (GMS-3)      
1 15152U 84080A   26060.92086229  .00000035  00000+0  00000+0 0  9992
2 15152  10.7884 324.3493 0004105 125.7284  61.8343  0.99835694151578
SL-12 R/B(2)            
1 15181U 84078F   26061.67790645 -.00000295  00000+0  00000+0 0  9997
2 15181   9.1682 314.4201 0020843 212.5131 330.9222  1.00350142121945
TELSTAR 302             
1 15237U 84093D   26061.48919669 -.00000162  00000+0  00000+0 0  9997
2 15237  14.1896 346.1596 0001373 251.0183 268.2600  0.99787518 45374
GALAXY 3 (G-3)          
1 15308U 84101A   26061.47459706  .00000079  00000+0  00000+0 0  9992
2 15308  14.1577 345.9030 0006710  11.7000 181.7187  0.99839143 45414
ZHONGXING-5R            
1 15385U 84114A   26060.91572677  .00000096  00000+0  00000+0 0  9991
2 15385  14.6871 352.8348 0006393  63.9122 116.4277  0.99755835125904
GORIZONT 11             
1 15484U 85007A   26061.01373780 -.00000179  00000+0  00000+0 0  9992
2 15484   9.3503 316.2171 0003260 293.5326 255.5822  1.00253072151552
ARABSAT-1A              
1 15560U 85015A   26061.68119979 -.00000365  00000+0  00000+0 0  9994
2 15560  11.9662 331.9703 0030030 240.8335 303.1999  1.00174111124941
