[{"OBJECT_NAME":"EKRAN 11","OBJECT_ID":"1983-100A","EPOCH":"2026-03-02T03:26:13.038144","MEAN_MOTION":1.00314507,"ECCENTRICITY":0.0004708,"INCLINATION":7.9956,"RA_OF_ASC_NODE":305.2609,"ARG_OF_PERICENTER":348.0041,"MEAN_ANOMALY":11.9605,"EPHEMERIS_TYPE":0,"CLASSIFICATION_TYPE":"U","NORAD_CAT_ID":14377,"ELEMENT_SET_NO":999,"REV_AT_EPOCH":4630,"BSTAR":0,"MEAN_MOTION_DOT":-2.91e-6,"MEAN_MOTION_DDOT":0},{"OBJECT_NAME":"INTELSAT 507","OBJECT_ID":"1983-105A","EPOCH":"2026-03-02T11:45:34.761024","MEAN_MOTION":0.99689767,"ECCENTRICITY":0.00032059,"INCLINATION":12.0973,"RA_OF_ASC_NODE":331.8521,"ARG_OF_PERICENTER":47.2165,"MEAN_ANOMALY":221.493,"EPHEMERIS_TYPE":0,"CLASSIFICATION_TYPE":"U","NORAD_CAT_ID":14421,"ELEMENT_SET_NO":999,"REV_AT_EPOCH":13616,"BSTAR":0,"MEAN_MOTION_DOT":-9.1e-7,"MEAN_MOTION_DDOT":0},{"OBJECT_NAME":"RADUGA 14","OBJECT_ID":"1984-016A","EPOCH":"2026-03-02T20:10:38.498304","MEAN_MOTION":1.00297103,"ECCENTRICITY":5.32e-5,"INCLINATION":8.7757,"RA_OF_ASC_NODE":311.4893,"ARG_OF_PERICENTER":125.8562,"MEAN_ANOMALY":96.6614,"EPHEMERIS_TYPE":0,"CLASSIFICATION_TYPE":"U","NORAD_CAT_ID":14725,"ELEMENT_SET_NO":999,"REV_AT_EPOCH":11703,"BSTAR":0,"MEAN_MOTION_DOT":-7.7e-7,"MEAN_MOTION_DDOT":0},{"OBJECT_NAME":"COSMOS 1540","OBJECT_ID":"1984-022A","EPOCH":"2026-03-02T16:10:04.203264","MEAN_MOTION":1.00282251,"ECCENTRICITY":0.0007679,"INCLINATION":9.544,"RA_OF_ASC_NODE":305.3855,"ARG_OF_PERICENTER":300.3177,"MEAN_ANOMALY":229.1005,"EPHEMERIS_TYPE":0,"CLASSIFICATION_TYPE":"U","NORAD_CAT_ID":14783,"ELEMENT_SET_NO":999,"REV_AT_EPOCH":11995,"BSTAR":0,"MEAN_MOTION_DOT":-8.4e-7,"MEAN_MOTION_DDOT":0},{"OBJECT_NAME":"COSMOS 1546","OBJECT_ID":"1984-031A","EPOCH":"2026-03-02T18:53:30.712128","MEAN_MOTION":1.00257652,"ECCENTRICITY":0.0025168,"INCLINATION":8.881,"RA_OF_ASC_NODE":312.1374,"ARG_OF_PERICENTER":13.2119,"MEAN_ANOMALY":195.0948,"EPHEMERIS_TYPE":0,"CLASSIFICATION_TYPE":"U","NORAD_CAT_ID":14867,"ELEMENT_SET_NO":999,"REV_AT_EPOCH":4630,"BSTAR":0,"MEAN_MOTION_DOT":-1.24e-6,"MEAN_MOTION_DDOT":0},{"OBJECT_NAME":"STTW-T2","OBJECT_ID":"1984-035A","EPOCH":"2026-03-02T13:34:14.491200","MEAN_MOTION":1.00269682,"ECCENTRICITY":0.0005664,"INCLINATION":9.6384,"RA_OF_ASC_NODE":318.5652,"ARG_OF_PERICENTER":196.6385,"MEAN_ANOMALY":343.7122,"EPHEMERIS_TYPE":0,"CLASSIFICATION_TYPE":"U","NORAD_CAT_ID":14899,"ELEMENT_SET_NO":999,"REV_AT_EPOCH":4630,"BSTAR":0,"MEAN_MOTION_DOT":-3.36e-6,"MEAN_MOTION_DDOT":0},{"OBJECT_NAME":"GORIZONT 9","OBJECT_ID":"1984-041A","EPOCH":"2026-03-02T18:51:51.746112","MEAN_MOTION":1.0031846,"ECCENTRICITY":0.0005792,"INCLINATION":8.9491,"RA_OF_ASC_NODE":313.0091,"ARG_OF_PERICENTER":295.3609,"MEAN_ANOMALY":278.2985,"EPHEMERIS_TYPE":0,"CLASSIFICATION_TYPE":"U","NORAD_CAT_ID":14940,"ELEMENT_SET_NO":999,"REV_AT_EPOCH":12087,"BSTAR":0,"MEAN_MOTION_DOT":-2.01e-6,"MEAN_MOTION_DDOT":0},{"OBJECT_NAME":"ZHONGXING-5","OBJECT_ID":"1984-049A","EPOCH":"2026-03-01T05:19:39.521280","MEAN_MOTION":0.99989893,"ECCENTRICITY":0.0010447,"INCLINATION":14.3956,"RA_OF_ASC_NODE":349.1328,"ARG_OF_PERICENTER":253.4592,"MEAN_ANOMALY":300.258,"EPHEMERIS_TYPE":0,"CLASSIFICATION_TYPE":"U","NORAD_CAT_ID":14985,"ELEMENT_SET_NO":999,"REV_AT_EPOCH":13022,"BSTAR":0,"MEAN_MOTION_DOT":-3.07e-6,"MEAN_MOTION_DDOT":0},{"OBJECT_NAME":"RADUGA 15","OBJECT_ID":"1984-063A","EPOCH":"2026-03-02T15:08:04.855200","MEAN_MOTION":1.0018724,"ECCENTRICITY":0.0001897,"INCLINATION":8.9347,"RA_OF_ASC_NODE":312.4752,"ARG_OF_PERICENTER":248.2679,"MEAN_ANOMALY":291.4449,"EPHEMERIS_TYPE":0,"CLASSIFICATION_TYPE":"U","NORAD_CAT_ID":15057,"ELEMENT_SET_NO":999,"REV_AT_EPOCH":14003,"BSTAR":0,"MEAN_MOTION_DOT":-3.42e-6,"MEAN_MOTION_DDOT":0},{"OBJECT_NAME":"GORIZONT 10","OBJECT_ID":"1984-078A","EPOCH":"2026-03-02T11:21:03.184992","MEAN_MOTION":1.00193478,"ECCENTRICITY":0.00038087,"INCLINATION":9.0845,"RA_OF_ASC_NODE":314.0546,"ARG_OF_PERICENTER":340.1278,"MEAN_ANOMALY":251.3504,"EPHEMERIS_TYPE":0,"CLASSIFICATION_TYPE":"U","NORAD_CAT_ID":15144,"ELEMENT_SET_NO":999,"REV_AT_EPOCH":15350,"BSTAR":0,"MEAN_MOTION_DOT":9.7e-7,"MEAN_MOTION_DDOT":0},{"OBJECT_NAME":"HIMAWARI-3 (GMS-3)","OBJECT_ID":"1984-080A","EPOCH":"2026-03-01T22:06:02.501856","MEAN_MOTION":0.99835694,"ECCENTRICITY":0.0004105,"INCLINATION":10.7884,"RA_OF_ASC_NODE":324.3493,"ARG_OF_PERICENTER":125.7284,"MEAN_ANOMALY":61.8343,"EPHEMERIS_TYPE":0,"CLASSIFICATION_TYPE":"U","NORAD_CAT_ID":15152,"ELEMENT_SET_NO":999,"REV_AT_EPOCH":15157,"BSTAR":0,"MEAN_MOTION_DOT":3.5e-7,"MEAN_MOTION_DDOT":0},{"OBJECT_NAME":"SL-12 R/B(2)","OBJECT_ID":"1984-078F","EPOCH":"2026-03-02T16:16:11.117280","MEAN_MOTION":1.00350142,"ECCENTRICITY":0.0020843,"INCLINATION":9.1682,"RA_OF_ASC_NODE":314.4201,"ARG_OF_PERICENTER":212.5131,"MEAN_ANOMALY":330.9222,"EPHEMERIS_TYPE":0,"CLASSIFICATION_TYPE":"U","NORAD_CAT_ID":15181,"ELEMENT_SET_NO":999,"REV_AT_EPOCH":12194,"BSTAR":0,"MEAN_MOTION_DOT":-2.95e-6,"MEAN_MOTION_DDOT":0},{"OBJECT_NAME":"TELSTAR 302","OBJECT_ID":"1984-093D","EPOCH":"2026-03-02T11:44:26.594016","MEAN_MOTION":0.99787518,"ECCENTRICITY":0.00013734,"INCLINATION":14.1896,"RA_OF_ASC_NODE":346.1596,"ARG_OF_PERICENTER":251.0183,"MEAN_ANOMALY":268.26,"EPHEMERIS_TYPE":0,"CLASSIFICATION_TYPE":"U","NORAD_CAT_ID":15237,"ELEMENT_SET_NO":999,"REV_AT_EPOCH":4537,"BSTAR":0,"MEAN_MOTION_DOT":-1.62e-6,"MEAN_MOTION_DDOT":0},{"OBJECT_NAME":"GALAXY 3 (G-3)","OBJECT_ID":"1984-101A","EPOCH":"2026-03-02T11:23:25.185984","MEAN_MOTION":0.99839143,"ECCENTRICITY":0.00067109,"INCLINATION":14.1577,"RA_OF_ASC_NODE":345.903,"ARG_OF_PERICENTER":11.7,"MEAN_ANOMALY":181.7187,"EPHEMERIS_TYPE":0,"CLASSIFICATION_TYPE":"U","NORAD_CAT_ID":15308,"ELEMENT_SET_NO":999,"REV_AT_EPOCH":4541,"BSTAR":0,"MEAN_MOTION_DOT":7.9e-7,"MEAN_MOTION_DDOT":0},{"OBJECT_NAME":"ZHONGXING-5R","OBJECT_ID":"1984-114A","EPOCH":"2026-03-01T21:58:38.792928","MEAN_MOTION":0.99755835,"ECCENTRICITY":0.0006393,"INCLINATION":14.6871,"RA_OF_ASC_NODE":352.8348,"ARG_OF_PERICENTER":63.9122,"MEAN_ANOMALY":116.4277,"EPHEMERIS_TYPE":0,"CLASSIFICATION_TYPE":"U","NORAD_CAT_ID":15385,"ELEMENT_SET_NO":999,"REV_AT_EPOCH":12590,"BSTAR":0,"MEAN_MOTION_DOT":9.6e-7,"MEAN_MOTION_DDOT":0},{"OBJECT_NAME":"GORIZONT 11","OBJECT_ID":"1985-007A","EPOCH":"2026-03-02T00:19:46.945920","MEAN_MOTION":1.00253072,"ECCENTRICITY":0.00032609,"INCLINATION":9.3503,"RA_OF_ASC_NODE":316.2171,"ARG_OF_PERICENTER":293.5326,"MEAN_ANOMALY":255.5822,"EPHEMERIS_TYPE":0,"CLASSIFICATION_TYPE":"U","NORAD_CAT_ID":15484,"ELEMENT_SET_NO":999,"REV_AT_EPOCH":15155,"BSTAR":0,"MEAN_MOTION_DOT":-1.79e-6,"MEAN_MOTION_DDOT":0},{"OBJECT_NAME":"ARABSAT-1A","OBJECT_ID":"1985-015A","EPOCH":"2026-03-02T16:20:55.661856","MEAN_MOTION":1.00174111,"ECCENTRICITY":0.003003,"INCLINATION":11.9662,"RA_OF_ASC_NODE":331.9703,"ARG_OF_PERICENTER":240.8335,"MEAN_ANOMALY":303.1999,"EPHEMERIS_TYPE":0,"CLASSIFICATION_TYPE":"U","NORAD_CAT_ID":15560,"ELEMENT_SET_NO":999,"REV_AT_EPOCH":12494,"BSTAR":0,"MEAN_MOTION_DOT":-3.65e-6,"MEAN_MOTION_DDOT":0}]
